[{"OBJECT_NAME":"ONEWEB-0366","OBJECT_ID":"2021-090P","EPOCH":"2025-11-26T01:10:48.321696","MEAN_MOTION":13.14501482,"ECCENTRICITY":0.0001731,"INCLINATION":87.8979,"RA_OF_ASC_NODE":330.1916,"ARG_OF_PERICENTER":90.4919,"MEAN_ANOMALY":269.6409,"EPHEMERIS_TYPE":0,"CLASSIFICATION_TYPE":"U","NORAD_CAT_ID":49292,"ELEMENT_SET_NO":999,"REV_AT_EPOCH":20087,"BSTAR":-0.00041546,"MEAN_MOTION_DOT":-1.41e-6,"MEAN_MOTION_DDOT":0},{"OBJECT_NAME":"ONEWEB-0367","OBJECT_ID":"2021-090Q","EPOCH":"2025-11-26T05:03:15.852096","MEAN_MOTION":13.20770631,"ECCENTRICITY":0.0002018,"INCLINATION":87.9194,"RA_OF_ASC_NODE":314.9157,"ARG_OF_PERICENTER":82.6859,"MEAN_ANOMALY":277.4503,"EPHEMERIS_TYPE":0,"CLASSIFICATION_TYPE":"U","NORAD_CAT_ID":49293,"ELEMENT_SET_NO":999,"REV_AT_EPOCH":20303,"BSTAR":-0.00042477,"MEAN_MOTION_DOT":-1.6e-6,"MEAN_MOTION_DDOT":0},{"OBJECT_NAME":"ONEWEB-0368","OBJECT_ID":"2021-090R","EPOCH":"2025-11-25T21:08:16.725696","MEAN_MOTION":13.2076851,"ECCENTRICITY":0.00022948,"INCLINATION":87.9184,"RA_OF_ASC_NODE":315.0124,"ARG_OF_PERICENTER":105.1886,"MEAN_ANOMALY":254.9502,"EPHEMERIS_TYPE":0,"CLASSIFICATION_TYPE":"U","NORAD_CAT_ID":49294,"ELEMENT_SET_NO":999,"REV_AT_EPOCH":20414,"BSTAR":-0.00024611477,"MEAN_MOTION_DOT":-8.7e-7,"MEAN_MOTION_DDOT":0},{"OBJECT_NAME":"ONEWEB-0369","OBJECT_ID":"2021-090S","EPOCH":"2025-11-26T01:39:01.410912","MEAN_MOTION":13.19727727,"ECCENTRICITY":0.0001888,"INCLINATION":87.9204,"RA_OF_ASC_NODE":345.3956,"ARG_OF_PERICENTER":92.8673,"MEAN_ANOMALY":267.2675,"EPHEMERIS_TYPE":0,"CLASSIFICATION_TYPE":"U","NORAD_CAT_ID":49295,"ELEMENT_SET_NO":999,"REV_AT_EPOCH":19962,"BSTAR":3.5156e-5,"MEAN_MOTION_DOT":2.7e-7,"MEAN_MOTION_DDOT":0},{"OBJECT_NAME":"ONEWEB-0370","OBJECT_ID":"2021-090T","EPOCH":"2025-11-25T23:49:37.608096","MEAN_MOTION":13.20774021,"ECCENTRICITY":0.00017383,"INCLINATION":87.9184,"RA_OF_ASC_NODE":314.9651,"ARG_OF_PERICENTER":76.3465,"MEAN_ANOMALY":283.7862,"EPHEMERIS_TYPE":0,"CLASSIFICATION_TYPE":"U","NORAD_CAT_ID":49296,"ELEMENT_SET_NO":999,"REV_AT_EPOCH":20304,"BSTAR":-4.141543e-5,"MEAN_MOTION_DOT":-4.0e-8,"MEAN_MOTION_DDOT":0},{"OBJECT_NAME":"ONEWEB-0371","OBJECT_ID":"2021-090U","EPOCH":"2025-11-26T01:50:23.665920","MEAN_MOTION":13.19728128,"ECCENTRICITY":0.0001866,"INCLINATION":87.9205,"RA_OF_ASC_NODE":345.381,"ARG_OF_PERICENTER":89.2538,"MEAN_ANOMALY":270.8809,"EPHEMERIS_TYPE":0,"CLASSIFICATION_TYPE":"U","NORAD_CAT_ID":49297,"ELEMENT_SET_NO":999,"REV_AT_EPOCH":19966,"BSTAR":0.00010037,"MEAN_MOTION_DOT":5.3e-7,"MEAN_MOTION_DDOT":0},{"OBJECT_NAME":"ONEWEB-0372","OBJECT_ID":"2021-090V","EPOCH":"2025-11-26T05:00:48.407040","MEAN_MOTION":13.20774387,"ECCENTRICITY":0.0001957,"INCLINATION":87.918,"RA_OF_ASC_NODE":314.9224,"ARG_OF_PERICENTER":87.4294,"MEAN_ANOMALY":272.7064,"EPHEMERIS_TYPE":0,"CLASSIFICATION_TYPE":"U","NORAD_CAT_ID":49298,"ELEMENT_SET_NO":999,"REV_AT_EPOCH":20304,"BSTAR":0.00012219,"MEAN_MOTION_DOT":6.3e-7,"MEAN_MOTION_DDOT":0},{"OBJECT_NAME":"ONEWEB-0373","OBJECT_ID":"2021-090W","EPOCH":"2025-11-26T00:12:22.843008","MEAN_MOTION":13.20772604,"ECCENTRICITY":0.00017377,"INCLINATION":87.9182,"RA_OF_ASC_NODE":314.9754,"ARG_OF_PERICENTER":86.6115,"MEAN_ANOMALY":273.5217,"EPHEMERIS_TYPE":0,"CLASSIFICATION_TYPE":"U","NORAD_CAT_ID":49299,"ELEMENT_SET_NO":999,"REV_AT_EPOCH":20420,"BSTAR":-2.7528764e-5,"MEAN_MOTION_DOT":2.0e-8,"MEAN_MOTION_DDOT":0},{"OBJECT_NAME":"ONEWEB-0374","OBJECT_ID":"2021-090X","EPOCH":"2025-11-26T00:52:31.970496","MEAN_MOTION":13.14503595,"ECCENTRICITY":0.00017694,"INCLINATION":87.8987,"RA_OF_ASC_NODE":330.1712,"ARG_OF_PERICENTER":107.9603,"MEAN_ANOMALY":252.1719,"EPHEMERIS_TYPE":0,"CLASSIFICATION_TYPE":"U","NORAD_CAT_ID":49300,"ELEMENT_SET_NO":999,"REV_AT_EPOCH":20087,"BSTAR":-0.00047153136,"MEAN_MOTION_DOT":-1.62e-6,"MEAN_MOTION_DDOT":0},{"OBJECT_NAME":"ONEWEB-0375","OBJECT_ID":"2021-090Y","EPOCH":"2025-11-25T23:54:11.598912","MEAN_MOTION":13.20772817,"ECCENTRICITY":0.00013775,"INCLINATION":87.918,"RA_OF_ASC_NODE":314.9583,"ARG_OF_PERICENTER":101.5355,"MEAN_ANOMALY":258.5933,"EPHEMERIS_TYPE":0,"CLASSIFICATION_TYPE":"U","NORAD_CAT_ID":49301,"ELEMENT_SET_NO":999,"REV_AT_EPOCH":20370,"BSTAR":-1.976654e-6,"MEAN_MOTION_DOT":1.2e-7,"MEAN_MOTION_DDOT":0},{"OBJECT_NAME":"ONEWEB-0376","OBJECT_ID":"2021-090Z","EPOCH":"2025-11-26T01:48:08.562240","MEAN_MOTION":13.19726465,"ECCENTRICITY":0.000205,"INCLINATION":87.921,"RA_OF_ASC_NODE":345.3681,"ARG_OF_PERICENTER":90.7723,"MEAN_ANOMALY":269.3645,"EPHEMERIS_TYPE":0,"CLASSIFICATION_TYPE":"U","NORAD_CAT_ID":49302,"ELEMENT_SET_NO":999,"REV_AT_EPOCH":19966,"BSTAR":0.0001061,"MEAN_MOTION_DOT":5.5e-7,"MEAN_MOTION_DDOT":0},{"OBJECT_NAME":"ONEWEB-0377","OBJECT_ID":"2021-090AA","EPOCH":"2025-11-26T05:01:12.565344","MEAN_MOTION":13.20773017,"ECCENTRICITY":0.0001658,"INCLINATION":87.919,"RA_OF_ASC_NODE":314.9156,"ARG_OF_PERICENTER":83.0341,"MEAN_ANOMALY":277.098,"EPHEMERIS_TYPE":0,"CLASSIFICATION_TYPE":"U","NORAD_CAT_ID":49303,"ELEMENT_SET_NO":999,"REV_AT_EPOCH":20372,"BSTAR":0.00016504,"MEAN_MOTION_DOT":8.0e-7,"MEAN_MOTION_DDOT":0},{"OBJECT_NAME":"ONEWEB-0378","OBJECT_ID":"2021-090AB","EPOCH":"2025-11-26T00:05:44.057760","MEAN_MOTION":13.20770911,"ECCENTRICITY":0.00017498,"INCLINATION":87.9187,"RA_OF_ASC_NODE":314.9713,"ARG_OF_PERICENTER":90.1009,"MEAN_ANOMALY":270.0325,"EPHEMERIS_TYPE":0,"CLASSIFICATION_TYPE":"U","NORAD_CAT_ID":49304,"ELEMENT_SET_NO":999,"REV_AT_EPOCH":20296,"BSTAR":-0.0010364344,"MEAN_MOTION_DOT":-4.08e-6,"MEAN_MOTION_DDOT":0},{"OBJECT_NAME":"ONEWEB-0379","OBJECT_ID":"2021-090AC","EPOCH":"2025-11-26T00:45:41.179968","MEAN_MOTION":13.14503553,"ECCENTRICITY":0.00018619,"INCLINATION":87.8986,"RA_OF_ASC_NODE":330.181,"ARG_OF_PERICENTER":92.8992,"MEAN_ANOMALY":267.235,"EPHEMERIS_TYPE":0,"CLASSIFICATION_TYPE":"U","NORAD_CAT_ID":49305,"ELEMENT_SET_NO":999,"REV_AT_EPOCH":20087,"BSTAR":-0.00056800926,"MEAN_MOTION_DOT":-1.98e-6,"MEAN_MOTION_DDOT":0},{"OBJECT_NAME":"ONEWEB-0380","OBJECT_ID":"2021-090AD","EPOCH":"2025-11-26T01:43:34.339008","MEAN_MOTION":13.19725067,"ECCENTRICITY":0.0001614,"INCLINATION":87.9203,"RA_OF_ASC_NODE":345.3913,"ARG_OF_PERICENTER":93.6491,"MEAN_ANOMALY":266.4826,"EPHEMERIS_TYPE":0,"CLASSIFICATION_TYPE":"U","NORAD_CAT_ID":49306,"ELEMENT_SET_NO":999,"REV_AT_EPOCH":19963,"BSTAR":-0.00077585,"MEAN_MOTION_DOT":-2.98e-6,"MEAN_MOTION_DDOT":0},{"OBJECT_NAME":"ONEWEB-0381","OBJECT_ID":"2021-090AE","EPOCH":"2025-11-26T04:56:26.818944","MEAN_MOTION":13.20774364,"ECCENTRICITY":0.0001627,"INCLINATION":87.9181,"RA_OF_ASC_NODE":314.9198,"ARG_OF_PERICENTER":92.3436,"MEAN_ANOMALY":267.7884,"EPHEMERIS_TYPE":0,"CLASSIFICATION_TYPE":"U","NORAD_CAT_ID":49307,"ELEMENT_SET_NO":999,"REV_AT_EPOCH":20303,"BSTAR":0.00032139,"MEAN_MOTION_DOT":1.44e-6,"MEAN_MOTION_DDOT":0},{"OBJECT_NAME":"ONEWEB-0382","OBJECT_ID":"2021-090AF","EPOCH":"2025-11-26T04:38:17.225952","MEAN_MOTION":13.20773097,"ECCENTRICITY":0.0001747,"INCLINATION":87.9193,"RA_OF_ASC_NODE":314.9172,"ARG_OF_PERICENTER":96.684,"MEAN_ANOMALY":263.4492,"EPHEMERIS_TYPE":0,"CLASSIFICATION_TYPE":"U","NORAD_CAT_ID":49308,"ELEMENT_SET_NO":999,"REV_AT_EPOCH":20302,"BSTAR":0.0001102,"MEAN_MOTION_DOT":5.8e-7,"MEAN_MOTION_DDOT":0},{"OBJECT_NAME":"ONEWEB-0383","OBJECT_ID":"2021-090AG","EPOCH":"2025-11-26T00:36:32.728320","MEAN_MOTION":13.14501715,"ECCENTRICITY":0.00018357,"INCLINATION":87.8988,"RA_OF_ASC_NODE":330.1663,"ARG_OF_PERICENTER":95.1451,"MEAN_ANOMALY":264.9888,"EPHEMERIS_TYPE":0,"CLASSIFICATION_TYPE":"U","NORAD_CAT_ID":49309,"ELEMENT_SET_NO":999,"REV_AT_EPOCH":20090,"BSTAR":-0.0005204796,"MEAN_MOTION_DOT":-1.8e-6,"MEAN_MOTION_DDOT":0},{"OBJECT_NAME":"ONEWEB-0384","OBJECT_ID":"2021-090AH","EPOCH":"2025-11-26T04:29:16.797408","MEAN_MOTION":13.20798524,"ECCENTRICITY":0.0001811,"INCLINATION":87.9201,"RA_OF_ASC_NODE":314.9529,"ARG_OF_PERICENTER":104.2615,"MEAN_ANOMALY":255.8719,"EPHEMERIS_TYPE":0,"CLASSIFICATION_TYPE":"U","NORAD_CAT_ID":49310,"ELEMENT_SET_NO":999,"REV_AT_EPOCH":20303,"BSTAR":0.00025989,"MEAN_MOTION_DOT":1.19e-6,"MEAN_MOTION_DDOT":0},{"OBJECT_NAME":"ONEWEB-0385","OBJECT_ID":"2021-090AJ","EPOCH":"2025-11-25T21:10:32.541312","MEAN_MOTION":13.20771975,"ECCENTRICITY":0.00017537,"INCLINATION":87.9181,"RA_OF_ASC_NODE":314.9857,"ARG_OF_PERICENTER":91.6232,"MEAN_ANOMALY":268.5102,"EPHEMERIS_TYPE":0,"CLASSIFICATION_TYPE":"U","NORAD_CAT_ID":49311,"ELEMENT_SET_NO":999,"REV_AT_EPOCH":20296,"BSTAR":-8.1236767e-5,"MEAN_MOTION_DOT":-2.0e-7,"MEAN_MOTION_DDOT":0},{"OBJECT_NAME":"ONEWEB-0386","OBJECT_ID":"2021-090AK","EPOCH":"2025-11-26T04:51:54.076608","MEAN_MOTION":13.20773506,"ECCENTRICITY":0.0001779,"INCLINATION":87.9191,"RA_OF_ASC_NODE":314.9043,"ARG_OF_PERICENTER":95.8676,"MEAN_ANOMALY":264.266,"EPHEMERIS_TYPE":0,"CLASSIFICATION_TYPE":"U","NORAD_CAT_ID":49312,"ELEMENT_SET_NO":999,"REV_AT_EPOCH":20302,"BSTAR":-4.2807e-5,"MEAN_MOTION_DOT":-4.0e-8,"MEAN_MOTION_DDOT":0},{"OBJECT_NAME":"ONEWEB-0387","OBJECT_ID":"2021-090AL","EPOCH":"2025-11-25T21:12:50.274144","MEAN_MOTION":13.207725,"ECCENTRICITY":0.0001523,"INCLINATION":87.9183,"RA_OF_ASC_NODE":315.0148,"ARG_OF_PERICENTER":87.976,"MEAN_ANOMALY":272.1548,"EPHEMERIS_TYPE":0,"CLASSIFICATION_TYPE":"U","NORAD_CAT_ID":49313,"ELEMENT_SET_NO":999,"REV_AT_EPOCH":20298,"BSTAR":-0.00019678879,"MEAN_MOTION_DOT":-6.7e-7,"MEAN_MOTION_DDOT":0},{"OBJECT_NAME":"ONEWEB-0388","OBJECT_ID":"2021-090AM","EPOCH":"2025-11-26T03:25:55.474752","MEAN_MOTION":13.19728016,"ECCENTRICITY":0.0001782,"INCLINATION":87.9195,"RA_OF_ASC_NODE":345.3796,"ARG_OF_PERICENTER":96.7135,"MEAN_ANOMALY":263.4201,"EPHEMERIS_TYPE":0,"CLASSIFICATION_TYPE":"U","NORAD_CAT_ID":49314,"ELEMENT_SET_NO":999,"REV_AT_EPOCH":19963,"BSTAR":0.00027142,"MEAN_MOTION_DOT":1.22e-6,"MEAN_MOTION_DDOT":0}]
